{
  "type": "FeatureCollection",
  "features": [
    {
      "type": "Feature",
      "properties": {
        "norad_id": 31307,
        "name": "GALAXY 17 (G-17)",
        "group": "intelsat",
        "lat": 1.4792292026898015,
        "lon": -134.35933292127177,
        "alt_km": 35765.120548404666,
        "timestamp": "2025-12-19T14:48:35.912047+00:00",
        "meta_object_name": "GALAXY 17 (G-17)",
        "meta_object_id": "2007-016B",
        "meta_epoch": "2025-12-19T06:12:39.425760",
        "meta_mean_motion": 1.00272358,
        "meta_eccentricity": 0.00054453,
        "meta_inclination": 2.5157,
        "meta_ra_of_asc_node": 82.2133,
        "meta_arg_of_pericenter": 169.8109,
        "meta_mean_anomaly": 204.2848,
        "meta_ephemeris_type": 0,
        "meta_classification_type": "U",
        "meta_norad_cat_id": 31307,
        "meta_element_set_no": 999,
        "meta_rev_at_epoch": 6800,
        "meta_bstar": 0,
        "meta_mean_motion_dot": -1.84e-06,
        "meta_mean_motion_ddot": 0,
        "tle_line1": "1 31307U 07016B   25353.25878965 -.00000184  00000+0  00000+0 0  9998",
        "tle_line2": "2 31307   2.5157  82.2133 0005445 169.8109 204.2848  1.00272358 68007"
      },
      "geometry": {
        "type": "Point",
        "coordinates": [
          -134.35933292127177,
          1.4792292026898015
        ]
      }
    },
    {
      "type": "Feature",
      "properties": {
        "norad_id": 31862,
        "name": "DIRECTV 10",
        "group": "intelsat",
        "lat": -0.0033889214078438065,
        "lon": -152.20572105462415,
        "alt_km": 35785.54556421986,
        "timestamp": "2025-12-19T14:48:35.912059+00:00",
        "meta_object_name": "DIRECTV 10",
        "meta_object_id": "2007-032A",
        "meta_epoch": "2025-12-18T23:04:43.398624",
        "meta_mean_motion": 1.00270613,
        "meta_eccentricity": 2.114e-05,
        "meta_inclination": 0.0079,
        "meta_ra_of_asc_node": 54.2864,
        "meta_arg_of_pericenter": 143.5711,
        "meta_mean_anomaly": 133.3348,
        "meta_ephemeris_type": 0,
        "meta_classification_type": "U",
        "meta_norad_cat_id": 31862,
        "meta_element_set_no": 999,
        "meta_rev_at_epoch": 4378,
        "meta_bstar": 0,
        "meta_mean_motion_dot": -7.8e-07,
        "meta_mean_motion_ddot": 0,
        "tle_line1": "1 31862U 07032A   25352.96161341 -.00000078  00000+0  00000+0 0  9994",
        "tle_line2": "2 31862   0.0079  54.2864 0000211 143.5711 133.3348  1.00270613 43780"
      },
      "geometry": {
        "type": "Point",
        "coordinates": [
          -152.20572105462415,
          -0.0033889214078438065
        ]
      }
    },
    {
      "type": "Feature",
      "properties": {
        "norad_id": 32253,
        "name": "INTELSAT 11 (IS-11)",
        "group": "intelsat",
        "lat": 2.822501950733031,
        "lon": 145.909665981668,
        "alt_km": 36139.756868395656,
        "timestamp": "2025-12-19T14:48:35.912070+00:00",
        "meta_object_name": "INTELSAT 11 (IS-11)",
        "meta_object_id": "2007-044B",
        "meta_epoch": "2025-12-19T05:38:33.071136",
        "meta_mean_motion": 0.99051799,
        "meta_eccentricity": 0.00085519,
        "meta_inclination": 3.0962,
        "meta_ra_of_asc_node": 80.9054,
        "meta_arg_of_pericenter": 168.4719,
        "meta_mean_anomaly": 120.4553,
        "meta_ephemeris_type": 0,
        "meta_classification_type": "U",
        "meta_norad_cat_id": 32253,
        "meta_element_set_no": 999,
        "meta_rev_at_epoch": 6666,
        "meta_bstar": 0,
        "meta_mean_motion_dot": -2.6e-07,
        "meta_mean_motion_ddot": 0,
        "tle_line1": "1 32253U 07044B   25353.23510499 -.00000026  00000+0  00000+0 0  9998",
        "tle_line2": "2 32253   3.0962  80.9054 0008551 168.4719 120.4553  0.99051799 66661"
      },
      "geometry": {
        "type": "Point",
        "coordinates": [
          145.909665981668,
          2.822501950733031
        ]
      }
    },
    {
      "type": "Feature",
      "properties": {
        "norad_id": 32388,
        "name": "HORIZONS-2",
        "group": "intelsat",
        "lat": 0.9164971463075218,
        "lon": -123.19467776565514,
        "alt_km": 35770.7980033962,
        "timestamp": "2025-12-19T14:48:35.912082+00:00",
        "meta_object_name": "HORIZONS-2",
        "meta_object_id": "2007-063B",
        "meta_epoch": "2025-12-19T06:15:31.308192",
        "meta_mean_motion": 1.002722,
        "meta_eccentricity": 0.00045723,
        "meta_inclination": 2.1377,
        "meta_ra_of_asc_node": 82.8922,
        "meta_arg_of_pericenter": 192.8793,
        "meta_mean_anomaly": 192.437,
        "meta_ephemeris_type": 0,
        "meta_classification_type": "U",
        "meta_norad_cat_id": 32388,
        "meta_element_set_no": 999,
        "meta_rev_at_epoch": 6601,
        "meta_bstar": 0,
        "meta_mean_motion_dot": -2.31e-06,
        "meta_mean_motion_ddot": 0,
        "tle_line1": "1 32388U 07063B   25353.26077903 -.00000231  00000+0  00000+0 0  9997",
        "tle_line2": "2 32388   2.1377  82.8922 0004572 192.8793 192.4370  1.00272200 66017"
      },
      "geometry": {
        "type": "Point",
        "coordinates": [
          -123.19467776565514,
          0.9164971463075218
        ]
      }
    },
    {
      "type": "Feature",
      "properties": {
        "norad_id": 32729,
        "name": "DIRECTV 11",
        "group": "intelsat",
        "lat": -0.00743181513971444,
        "lon": -148.57537567353287,
        "alt_km": 35784.28987640218,
        "timestamp": "2025-12-19T14:48:35.912094+00:00",
        "meta_object_name": "DIRECTV 11",
        "meta_object_id": "2008-013A",
        "meta_epoch": "2025-12-18T14:32:04.553664",
        "meta_mean_motion": 1.00272086,
        "meta_eccentricity": 5.406e-05,
        "meta_inclination": 0.0315,
        "meta_ra_of_asc_node": 212.3595,
        "meta_arg_of_pericenter": 318.9842,
        "meta_mean_anomaly": 34.9588,
        "meta_ephemeris_type": 0,
        "meta_classification_type": "U",
        "meta_norad_cat_id": 32729,
        "meta_element_set_no": 999,
        "meta_rev_at_epoch": 4378,
        "meta_bstar": 0,
        "meta_mean_motion_dot": -1.01e-06,
        "meta_mean_motion_ddot": 0,
        "tle_line1": "1 32729U 08013A   25352.60560826 -.00000101  00000+0  00000+0 0  9996",
        "tle_line2": "2 32729   0.0315 212.3595 0000540 318.9842  34.9588  1.00272086 43780"
      },
      "geometry": {
        "type": "Point",
        "coordinates": [
          -148.57537567353287,
          -0.00743181513971444
        ]
      }
    },
    {
      "type": "Feature",
      "properties": {
        "norad_id": 32951,
        "name": "GALAXY 18 (G-18)",
        "group": "intelsat",
        "lat": 0.004737375395175848,
        "lon": -172.43794407229808,
        "alt_km": 35785.21024446563,
        "timestamp": "2025-12-19T14:48:35.912106+00:00",
        "meta_object_name": "GALAXY 18 (G-18)",
        "meta_object_id": "2008-024A",
        "meta_epoch": "2025-12-19T05:47:44.988288",
        "meta_mean_motion": 1.00270818,
        "meta_eccentricity": 0.00028156,
        "meta_inclination": 0.0162,
        "meta_ra_of_asc_node": 31.3027,
        "meta_arg_of_pericenter": 240.9441,
        "meta_mean_anomaly": 139.777,
        "meta_ephemeris_type": 0,
        "meta_classification_type": "U",
        "meta_norad_cat_id": 32951,
        "meta_element_set_no": 999,
        "meta_rev_at_epoch": 4404,
        "meta_bstar": 0,
        "meta_mean_motion_dot": 5e-07,
        "meta_mean_motion_ddot": 0,
        "tle_line1": "1 32951U 08024A   25353.24149292  .00000050  00000+0  00000+0 0  9998",
        "tle_line2": "2 32951   0.0162  31.3027 0002815 240.9441 139.7770  1.00270818 44040"
      },
      "geometry": {
        "type": "Point",
        "coordinates": [
          -172.43794407229808,
          0.004737375395175848
        ]
      }
    },
    {
      "type": "Feature",
      "properties": {
        "norad_id": 33153,
        "name": "INTELSAT 25 (IS-25)",
        "group": "intelsat",
        "lat": -0.6654478202105985,
        "lon": -80.9033535011584,
        "alt_km": 35766.566845885456,
        "timestamp": "2025-12-19T14:48:35.912118+00:00",
        "meta_object_name": "INTELSAT 25 (IS-25)",
        "meta_object_id": "2008-034A",
        "meta_epoch": "2025-12-19T06:15:59.484960",
        "meta_mean_motion": 1.00270447,
        "meta_eccentricity": 0.00047953,
        "meta_inclination": 2.2436,
        "meta_ra_of_asc_node": 82.5806,
        "meta_arg_of_pericenter": 186.3988,
        "meta_mean_anomaly": 241.6253,
        "meta_ephemeris_type": 0,
        "meta_classification_type": "U",
        "meta_norad_cat_id": 33153,
        "meta_element_set_no": 999,
        "meta_rev_at_epoch": 6389,
        "meta_bstar": 0,
        "meta_mean_motion_dot": -2.01e-06,
        "meta_mean_motion_ddot": 0,
        "tle_line1": "1 33153U 08034A   25353.26110515 -.00000201  00000+0  00000+0 0  9991",
        "tle_line2": "2 33153   2.2436  82.5806 0004795 186.3988 241.6253  1.00270447 63895"
      },
      "geometry": {
        "type": "Point",
        "coordinates": [
          -80.9033535011584,
          -0.6654478202105985
        ]
      }
    }
  ]
}